{"type": "FeatureCollection", "features": [ {"type": "Feature", "properties": {"norad_id": 66603, "name": "STARLINK-36048", "group": "last-30-days", "lat": 41.44261234142347, "lon": -8.197455358662149, "alt_km": 332.3231638258594, "timestamp": "2025-12-04T05:42:42.159340+00:00", "meta": {"OBJECT_NAME": "STARLINK-36048", "OBJECT_ID": "2025-270R", "EPOCH": "2025-12-03T11:02:14.987616", "MEAN_MOTION": 15.77427555, "ECCENTRICITY": 0.00029761, "INCLINATION": 42.9997, "RA_OF_ASC_NODE": 247.8997, "ARG_OF_PERICENTER": 348.8676, "MEAN_ANOMALY": 11.2128, "EPHEMERIS_TYPE": 0, "CLASSIFICATION_TYPE": "U", "NORAD_CAT_ID": 66603, "ELEMENT_SET_NO": 999, "REV_AT_EPOCH": 279, "BSTAR": -0.00072866525, "MEAN_MOTION_DOT": -0.00123141, "MEAN_MOTION_DDOT": 0}, "tle": {"line1": "1 66603U 25270R   25337.45989569 -.00123141  00000+0 -72867-3 0  9998", "line2": "2 66603  42.9997 247.8997 0002976 348.8676  11.2128 15.77427555  2796"}}, "geometry": {"type": "Point", "coordinates": [-8.197455358662149, 41.44261234142347]}}, {"type": "Feature", "properties": {"norad_id": 66604, "name": "STARLINK-35977", "group": "last-30-days", "lat": 40.782581712833505, "lon": -4.629569377833165, "alt_km": 331.375798956572, "timestamp": "2025-12-04T05:42:42.159352+00:00", "meta": {"OBJECT_NAME": "STARLINK-35977", "OBJECT_ID": "2025-270S", "EPOCH": "2025-12-03T11:01:46.597440", "MEAN_MOTION": 15.77554299, "ECCENTRICITY": 0.00039426, "INCLINATION": 42.9996, "RA_OF_ASC_NODE": 247.8966, "ARG_OF_PERICENTER": 347.7852, "MEAN_ANOMALY": 12.2922, "EPHEMERIS_TYPE": 0, "CLASSIFICATION_TYPE": "U", "NORAD_CAT_ID": 66604, "ELEMENT_SET_NO": 999, "REV_AT_EPOCH": 289, "BSTAR": 0.00071417663, "MEAN_MOTION_DOT": 0.00123952, "MEAN_MOTION_DDOT": 0}, "tle": {"line1": "1 66604U 25270S   25337.45956710  .00123952  00000+0  71418-3 0  9990", "line2": "2 66604  42.9996 247.8966 0003942 347.7852  12.2922 15.77554299  2890"}}, "geometry": {"type": "Point", "coordinates": [-4.629569377833165, 40.782581712833505]}}, {"type": "Feature", "properties": {"norad_id": 66605, "name": "STARLINK-36052", "group": "last-30-days", "lat": 41.71930941946143, "lon": -9.936562388530731, "alt_km": 341.7039408556284, "timestamp": "2025-12-04T05:42:42.159374+00:00", "meta": {"OBJECT_NAME": "STARLINK-36052", "OBJECT_ID": "2025-270T", "EPOCH": "2025-12-03T08:00:01.999872", "MEAN_MOTION": 15.77202712, "ECCENTRICITY": 0.0001872, "INCLINATION": 42.9988, "RA_OF_ASC_NODE": 248.6618, "ARG_OF_PERICENTER": 272.0176, "MEAN_ANOMALY": 92.6481, "EPHEMERIS_TYPE": 0, "CLASSIFICATION_TYPE": "U", "NORAD_CAT_ID": 66605, "ELEMENT_SET_NO": 999, "REV_AT_EPOCH": 289, "BSTAR": -0.010227645, "MEAN_MOTION_DOT": -0.01519094, "MEAN_MOTION_DDOT": 0}, "tle": {"line1": "1 66605U 25270T   25337.33335648 -.01519094  00000+0 -10228-1 0  9998", "line2": "2 66605  42.9988 248.6618 0001872 272.0176  92.6481 15.77202712  2896"}}, "geometry": {"type": "Point", "coordinates": [-9.936562388530731, 41.71930941946143]}}, {"type": "Feature", "properties": {"norad_id": 66606, "name": "STARLINK-36063", "group": "last-30-days", "lat": 41.019333656964605, "lon": -5.840634061560579, "alt_km": 336.7976653289179, "timestamp": "2025-12-04T05:42:42.159386+00:00", "meta": {"OBJECT_NAME": "STARLINK-36063", "OBJECT_ID": "2025-270U", "EPOCH": "2025-12-03T18:37:00.979392", "MEAN_MOTION": 15.75605933, "ECCENTRICITY": 0.00021358, "INCLINATION": 42.9981, "RA_OF_ASC_NODE": 245.9669, "ARG_OF_PERICENTER": 314.2101, "MEAN_ANOMALY": 45.8592, "EPHEMERIS_TYPE": 0, "CLASSIFICATION_TYPE": "U", "NORAD_CAT_ID": 66606, "ELEMENT_SET_NO": 999, "REV_AT_EPOCH": 294, "BSTAR": 0.0018492967, "MEAN_MOTION_DOT": 0.00301357, "MEAN_MOTION_DDOT": 0}, "tle": {"line1": "1 66606U 25270U   25337.77570578  .00301357  00000+0  18493-2 0  9991", "line2": "2 66606  42.9981 245.9669 0002135 314.2101  45.8592 15.75605933  2945"}}, "geometry": {"type": "Point", "coordinates": [-5.840634061560579, 41.019333656964605]}}, {"type": "Feature", "properties": {"norad_id": 66607, "name": "STARLINK-35993", "group": "last-30-days", "lat": 41.06825832369256, "lon": -6.0974528022153995, "alt_km": 339.1580707715966, "timestamp": "2025-12-04T05:42:42.159398+00:00", "meta": {"OBJECT_NAME": "STARLINK-35993", "OBJECT_ID": "2025-270V", "EPOCH": "2025-12-03T18:36:59.788800", "MEAN_MOTION": 15.75973552, "ECCENTRICITY": 0.000278, "INCLINATION": 42.9983, "RA_OF_ASC_NODE": 245.9674, "ARG_OF_PERICENTER": 316.6181, "MEAN_ANOMALY": 43.447, "EPHEMERIS_TYPE": 0, "CLASSIFICATION_TYPE": "U", "NORAD_CAT_ID": 66607, "ELEMENT_SET_NO": 999, "REV_AT_EPOCH": 284, "BSTAR": -0.005504525, "MEAN_MOTION_DOT": -0.00802756, "MEAN_MOTION_DDOT": 0}, "tle": {"line1": "1 66607U 25270V   25337.77569200 -.00802756  00000+0 -55045-2 0  9997", "line2": "2 66607  42.9983 245.9674 0002780 316.6181  43.4470 15.75973552  2847"}}, "geometry": {"type": "Point", "coordinates": [-6.0974528022153995, 41.06825832369256]}}, {"type": "Feature", "properties": {"norad_id": 66608, "name": "STARLINK-36036", "group": "last-30-days", "lat": 40.44866490370531, "lon": -3.042033867014493, "alt_km": 342.697947129167, "timestamp": "2025-12-04T05:42:42.159409+00:00", "meta": {"OBJECT_NAME": "STARLINK-36036", "OBJECT_ID": "2025-270W", "EPOCH": "2025-12-03T08:00:01.999872", "MEAN_MOTION": 15.77197162, "ECCENTRICITY": 0.00017052, "INCLINATION": 42.9989, "RA_OF_ASC_NODE": 248.6471, "ARG_OF_PERICENTER": 268.7164, "MEAN_ANOMALY": 101.8576, "EPHEMERIS_TYPE": 0, "CLASSIFICATION_TYPE": "U", "NORAD_CAT_ID": 66608, "ELEMENT_SET_NO": 999, "REV_AT_EPOCH": 273, "BSTAR": -0.011405663, "MEAN_MOTION_DOT": -0.01704448, "MEAN_MOTION_DDOT": 0}, "tle": {"line1": "1 66608U 25270W   25337.33335648 -.01704448  00000+0 -11406-1 0  9999", "line2": "2 66608  42.9989 248.6471 0001705 268.7164 101.8576 15.77197162  2734"}}, "geometry": {"type": "Point", "coordinates": [-3.042033867014493, 40.44866490370531]}}, {"type": "Feature", "properties": {"norad_id": 66609, "name": "STARLINK-36034", "group": "last-30-days", "lat": 39.91133799063136, "lon": -0.706443819952319, "alt_km": 343.0146344999257, "timestamp": "2025-12-04T05:42:42.159418+00:00", "meta": {"OBJECT_NAME": "STARLINK-36034", "OBJECT_ID": "2025-270X", "EPOCH": "2025-12-03T08:00:01.999872", "MEAN_MOTION": 15.77204613, "ECCENTRICITY": 0.00018712, "INCLINATION": 42.9989, "RA_OF_ASC_NODE": 248.6425, "ARG_OF_PERICENTER": 269.751, "MEAN_ANOMALY": 102.7448, "EPHEMERIS_TYPE": 0, "CLASSIFICATION_TYPE": "U", "NORAD_CAT_ID": 66609, "ELEMENT_SET_NO": 999, "REV_AT_EPOCH": 273, "BSTAR": -0.011581071, "MEAN_MOTION_DOT": -0.01728208, "MEAN_MOTION_DDOT": 0}, "tle": {"line1": "1 66609U 25270X   25337.33335648 -.01728208  00000+0 -11581-1 0  9994", "line2": "2 66609  42.9989 248.6425 0001871 269.7510 102.7448 15.77204613  2732"}}, "geometry": {"type": "Point", "coordinates": [-0.706443819952319, 39.91133799063136]}}, {"type": "Feature", "properties": {"norad_id": 66610, "name": "STARLINK-35680", "group": "last-30-days", "lat": 38.14784767621275, "lon": 5.68444126232228, "alt_km": 340.02990928935196, "timestamp": "2025-12-04T05:42:42.159428+00:00", "meta": {"OBJECT_NAME": "STARLINK-35680", "OBJECT_ID": "2025-270Y", "EPOCH": "2025-12-03T18:34:33.430656", "MEAN_MOTION": 15.75731525, "ECCENTRICITY": 0.0004622, "INCLINATION": 42.9987, "RA_OF_ASC_NODE": 245.9546, "ARG_OF_PERICENTER": 334.0832, "MEAN_ANOMALY": 25.9805, "EPHEMERIS_TYPE": 0, "CLASSIFICATION_TYPE": "U", "NORAD_CAT_ID": 66610, "ELEMENT_SET_NO": 999, "REV_AT_EPOCH": 305, "BSTAR": -0.0030550834, "MEAN_MOTION_DOT": -0.00459412, "MEAN_MOTION_DDOT": 0}, "tle": {"line1": "1 66610U 25270Y   25337.77399804 -.00459412  00000+0 -30551-2 0  9994", "line2": "2 66610  42.9987 245.9546 0004622 334.0832  25.9805 15.75731525  3050"}}, "geometry": {"type": "Point", "coordinates": [5.68444126232228, 38.14784767621275]}}, {"type": "Feature", "properties": {"norad_id": 66611, "name": "STARLINK-35583", "group": "last-30-days", "lat": 38.14978657606913, "lon": 5.675085476041372, "alt_km": 339.7442788559365, "timestamp": "2025-12-04T05:42:42.159438+00:00", "meta": {"OBJECT_NAME": "STARLINK-35583", "OBJECT_ID": "2025-270Z", "EPOCH": "2025-12-03T18:34:33.676032", "MEAN_MOTION": 15.75927889, "ECCENTRICITY": 0.00027595, "INCLINATION": 42.9982, "RA_OF_ASC_NODE": 245.9531, "ARG_OF_PERICENTER": 326.8108, "MEAN_ANOMALY": 33.2588, "EPHEMERIS_TYPE": 0, "CLASSIFICATION_TYPE": "U", "NORAD_CAT_ID": 66611, "ELEMENT_SET_NO": 999, "REV_AT_EPOCH": 305, "BSTAR": -0.0055666969, "MEAN_MOTION_DOT": -0.00809515, "MEAN_MOTION_DDOT": 0}, "tle": {"line1": "1 66611U 25270Z   25337.77400088 -.00809515  00000+0 -55667-2 0  9990", "line2": "2 66611  42.9982 245.9531 0002759 326.8108  33.2588 15.75927889  3054"}}, "geometry": {"type": "Point", "coordinates": [5.675085476041372, 38.14978657606913]}}, {"type": "Feature", "properties": {"norad_id": 66612, "name": "STARLINK-36039", "group": "last-30-days", "lat": 35.354551541917964, "lon": 13.530814676453534, "alt_km": 333.2795327937365, "timestamp": "2025-12-04T05:42:42.159450+00:00", "meta": {"OBJECT_NAME": "STARLINK-36039", "OBJECT_ID": "2025-270AA", "EPOCH": "2025-12-03T10:57:48.968928", "MEAN_MOTION": 15.77433241, "ECCENTRICITY": 0.00040224, "INCLINATION": 43.0004, "RA_OF_ASC_NODE": 247.8729, "ARG_OF_PERICENTER": 347.0774, "MEAN_ANOMALY": 12.9993, "EPHEMERIS_TYPE": 0, "CLASSIFICATION_TYPE": "U", "NORAD_CAT_ID": 66612, "ELEMENT_SET_NO": 999, "REV_AT_EPOCH": 289, "BSTAR": 0.0006481925, "MEAN_MOTION_DOT": 0.00111686, "MEAN_MOTION_DDOT": 0}, "tle": {"line1": "1 66612U 25270AA  25337.45681677  .00111686  00000+0  64819-3 0  9994", "line2": "2 66612  43.0004 247.8729 0004022 347.0774  12.9993 15.77433241  2892"}}, "geometry": {"type": "Point", "coordinates": [13.530814676453534, 35.354551541917964]}}]}